{
  "type": "FeatureCollection",
  "features": [
    {
      "type": "Feature",
      "properties": {
        "norad_id": 37846,
        "name": "GSAT0101 (GALILEO-PFM)",
        "group": "galileo",
        "lat": -9.877218765859224,
        "lon": 173.3372361724896,
        "alt_km": 23228.092287508334,
        "timestamp": "2025-12-11T10:53:16.149109+00:00",
        "meta_object_name": "GSAT0101 (GALILEO-PFM)",
        "meta_object_id": "2011-060A",
        "meta_epoch": "2025-12-08T19:04:30.018432",
        "meta_mean_motion": 1.70475601,
        "meta_eccentricity": 0.00029509,
        "meta_inclination": 57.0536,
        "meta_ra_of_asc_node": 346.9268,
        "meta_arg_of_pericenter": 313.0699,
        "meta_mean_anomaly": 46.9223,
        "meta_ephemeris_type": 0,
        "meta_classification_type": "U",
        "meta_norad_cat_id": 37846,
        "meta_element_set_no": 999,
        "meta_rev_at_epoch": 8787,
        "meta_bstar": 0,
        "meta_mean_motion_dot": -8.7e-07,
        "meta_mean_motion_ddot": 0,
        "tle_line1": "1 37846U 11060A   25342.79479188 -.00000087  00000+0  00000+0 0  9999",
        "tle_line2": "2 37846  57.0536 346.9268 0002950 313.0699  46.9223  1.70475601 87878"
      },
      "geometry": {
        "type": "Point",
        "coordinates": [
          173.3372361724896,
          -9.877218765859224
        ]
      }
    },
    {
      "type": "Feature",
      "properties": {
        "norad_id": 37847,
        "name": "GSAT0102 (GALILEO-FM2)",
        "group": "galileo",
        "lat": -44.86726131400997,
        "lon": -152.94191760677936,
        "alt_km": 23222.513961533576,
        "timestamp": "2025-12-11T10:53:16.149133+00:00",
        "meta_object_name": "GSAT0102 (GALILEO-FM2)",
        "meta_object_id": "2011-060B",
        "meta_epoch": "2025-12-10T12:23:27.701376",
        "meta_mean_motion": 1.70475849,
        "meta_eccentricity": 0.00049481,
        "meta_inclination": 57.054,
        "meta_ra_of_asc_node": 346.8806,
        "meta_arg_of_pericenter": 308.752,
        "meta_mean_anomaly": 73.2267,
        "meta_ephemeris_type": 0,
        "meta_classification_type": "U",
        "meta_norad_cat_id": 37847,
        "meta_element_set_no": 999,
        "meta_rev_at_epoch": 8791,
        "meta_bstar": 0,
        "meta_mean_motion_dot": -8.8e-07,
        "meta_mean_motion_ddot": 0,
        "tle_line1": "1 37847U 11060B   25344.51629284 -.00000088  00000+0  00000+0 0  9997",
        "tle_line2": "2 37847  57.0540 346.8806 0004948 308.7520  73.2267  1.70475849 87914"
      },
      "geometry": {
        "type": "Point",
        "coordinates": [
          -152.94191760677936,
          -44.86726131400997
        ]
      }
    },
    {
      "type": "Feature",
      "properties": {
        "norad_id": 38857,
        "name": "GSAT0103 (GALILEO-FM3)",
        "group": "galileo",
        "lat": 10.570297940127451,
        "lon": -80.62216818062603,
        "alt_km": 23222.67064525487,
        "timestamp": "2025-12-11T10:53:16.149148+00:00",
        "meta_object_name": "GSAT0103 (GALILEO-FM3)",
        "meta_object_id": "2012-055A",
        "meta_epoch": "2025-12-10T14:16:18.944544",
        "meta_mean_motion": 1.70473311,
        "meta_eccentricity": 0.00025926,
        "meta_inclination": 55.6913,
        "meta_ra_of_asc_node": 106.7254,
        "meta_arg_of_pericenter": 268.6178,
        "meta_mean_anomaly": 91.322,
        "meta_ephemeris_type": 0,
        "meta_classification_type": "U",
        "meta_norad_cat_id": 38857,
        "meta_element_set_no": 999,
        "meta_rev_at_epoch": 8179,
        "meta_bstar": 0,
        "meta_mean_motion_dot": 1.1e-07,
        "meta_mean_motion_ddot": 0,
        "tle_line1": "1 38857U 12055A   25344.59466371  .00000011  00000+0  00000+0 0  9993",
        "tle_line2": "2 38857  55.6913 106.7254 0002592 268.6178  91.3220  1.70473311 81792"
      },
      "geometry": {
        "type": "Point",
        "coordinates": [
          -80.62216818062603,
          10.570297940127451
        ]
      }
    },
    {
      "type": "Feature",
      "properties": {
        "norad_id": 40128,
        "name": "GSAT0201 (GALILEO 5)",
        "group": "galileo",
        "lat": 47.995828012919276,
        "lon": -4.736851703316095,
        "alt_km": 21044.693685866787,
        "timestamp": "2025-12-11T10:53:16.149162+00:00",
        "meta_object_name": "GSAT0201 (GALILEO 5)",
        "meta_object_id": "2014-050A",
        "meta_epoch": "2025-12-09T03:42:58.517280",
        "meta_mean_motion": 1.8551953,
        "meta_eccentricity": 0.164755,
        "meta_inclination": 49.0809,
        "meta_ra_of_asc_node": 281.2097,
        "meta_arg_of_pericenter": 172.1436,
        "meta_mean_anomaly": 190.8359,
        "meta_ephemeris_type": 0,
        "meta_classification_type": "U",
        "meta_norad_cat_id": 40128,
        "meta_element_set_no": 999,
        "meta_rev_at_epoch": 7479,
        "meta_bstar": 0,
        "meta_mean_motion_dot": -7.1e-07,
        "meta_mean_motion_ddot": 0,
        "tle_line1": "1 40128U 14050A   25343.15484395 -.00000071  00000+0  00000+0 0  9998",
        "tle_line2": "2 40128  49.0809 281.2097 1647550 172.1436 190.8359  1.85519530 74797"
      },
      "geometry": {
        "type": "Point",
        "coordinates": [
          -4.736851703316095,
          47.995828012919276
        ]
      }
    },
    {
      "type": "Feature",
      "properties": {
        "norad_id": 40129,
        "name": "GSAT0202 (GALILEO 6)",
        "group": "galileo",
        "lat": -39.52124884920758,
        "lon": -125.40048700406498,
        "alt_km": 24053.19566295205,
        "timestamp": "2025-12-11T10:53:16.149176+00:00",
        "meta_object_name": "GSAT0202 (GALILEO 6)",
        "meta_object_id": "2014-050B",
        "meta_epoch": "2025-12-08T20:55:50.636640",
        "meta_mean_motion": 1.85520286,
        "meta_eccentricity": 0.16482545,
        "meta_inclination": 49.097,
        "meta_ra_of_asc_node": 280.3049,
        "meta_arg_of_pericenter": 172.8865,
        "meta_mean_anomaly": 189.8198,
        "meta_ephemeris_type": 0,
        "meta_classification_type": "U",
        "meta_norad_cat_id": 40129,
        "meta_element_set_no": 999,
        "meta_rev_at_epoch": 7695,
        "meta_bstar": 0,
        "meta_mean_motion_dot": -6.8e-07,
        "meta_mean_motion_ddot": 0,
        "tle_line1": "1 40129U 14050B   25342.87211385 -.00000068  00000+0  00000+0 0  9990",
        "tle_line2": "2 40129  49.0970 280.3049 1648254 172.8865 189.8198  1.85520286 76958"
      },
      "geometry": {
        "type": "Point",
        "coordinates": [
          -125.40048700406498,
          -39.52124884920758
        ]
      }
    },
    {
      "type": "Feature",
      "properties": {
        "norad_id": 40544,
        "name": "GSAT0203 (GALILEO 7)",
        "group": "galileo",
        "lat": -26.348720579299474,
        "lon": -32.176193604799224,
        "alt_km": 23214.982593273613,
        "timestamp": "2025-12-11T10:53:16.149188+00:00",
        "meta_object_name": "GSAT0203 (GALILEO 7)",
        "meta_object_id": "2015-017A",
        "meta_epoch": "2025-12-07T23:40:17.742144",
        "meta_mean_motion": 1.70475816,
        "meta_eccentricity": 0.00065218,
        "meta_inclination": 56.8473,
        "meta_ra_of_asc_node": 346.8096,
        "meta_arg_of_pericenter": 270.7048,
        "meta_mean_anomaly": 89.2382,
        "meta_ephemeris_type": 0,
        "meta_classification_type": "U",
        "meta_norad_cat_id": 40544,
        "meta_element_set_no": 999,
        "meta_rev_at_epoch": 6594,
        "meta_bstar": 0,
        "meta_mean_motion_dot": -8.6e-07,
        "meta_mean_motion_ddot": 0,
        "tle_line1": "1 40544U 15017A   25341.98631646 -.00000086  00000+0  00000+0 0  9992",
        "tle_line2": "2 40544  56.8473 346.8096 0006521 270.7048  89.2382  1.70475816 65945"
      },
      "geometry": {
        "type": "Point",
        "coordinates": [
          -32.176193604799224,
          -26.348720579299474
        ]
      }
    },
    {
      "type": "Feature",
      "properties": {
        "norad_id": 40545,
        "name": "GSAT0204 (GALILEO 8)",
        "group": "galileo",
        "lat": 7.436251349856218,
        "lon": 161.83834544422805,
        "alt_km": 23221.871435422505,
        "timestamp": "2025-12-11T10:53:16.149201+00:00",
        "meta_object_name": "GSAT0204 (GALILEO 8)",
        "meta_object_id": "2015-017B",
        "meta_epoch": "2025-12-10T14:06:53.390016",
        "meta_mean_motion": 1.70475544,
        "meta_eccentricity": 0.0006245,
        "meta_inclination": 56.8532,
        "meta_ra_of_asc_node": 346.7563,
        "meta_arg_of_pericenter": 262.7612,
        "meta_mean_anomaly": 97.1843,
        "meta_ephemeris_type": 0,
        "meta_classification_type": "U",
        "meta_norad_cat_id": 40545,
        "meta_element_set_no": 999,
        "meta_rev_at_epoch": 2903,
        "meta_bstar": 0,
        "meta_mean_motion_dot": -8.8e-07,
        "meta_mean_motion_ddot": 0,
        "tle_line1": "1 40545U 15017B   25344.58811794 -.00000088  00000+0  00000+0 0  9998",
        "tle_line2": "2 40545  56.8532 346.7563 0006245 262.7612  97.1843  1.70475544 29039"
      },
      "geometry": {
        "type": "Point",
        "coordinates": [
          161.83834544422805,
          7.436251349856218
        ]
      }
    }
  ]
}